{"type": "FeatureCollection", "features": [ {"type": "Feature", "properties": {"norad_id": 66395, "name": "STARLINK-35681", "group": "last-30-days", "lat": -49.61583386315684, "lon": -112.41992399914605, "alt_km": 424.4719957276002, "timestamp": "2025-12-03T04:52:28.419514+00:00", "meta": {"OBJECT_NAME": "STARLINK-35681", "OBJECT_ID": "2025-257R", "EPOCH": "2025-12-02T20:00:03.000384", "MEAN_MOTION": 15.49295971, "ECCENTRICITY": 0.0001373, "INCLINATION": 53.1584, "RA_OF_ASC_NODE": 311.1679, "ARG_OF_PERICENTER": 103.4526, "MEAN_ANOMALY": 281.0269, "EPHEMERIS_TYPE": 0, "CLASSIFICATION_TYPE": "U", "NORAD_CAT_ID": 66395, "ELEMENT_SET_NO": 999, "REV_AT_EPOCH": 474, "BSTAR": -0.0002172, "MEAN_MOTION_DOT": -0.00012503, "MEAN_MOTION_DDOT": 0}, "tle": {"line1": "1 66395U 25257R   25336.83336806 -.00012503  00000+0 -21720-3 0  9993", "line2": "2 66395  53.1584 311.1679 0001373 103.4526 281.0269 15.49295971  4745"}}, "geometry": {"type": "Point", "coordinates": [-112.41992399914605, -49.61583386315684]}}, {"type": "Feature", "properties": {"norad_id": 66396, "name": "STARLINK-35669", "group": "last-30-days", "lat": -48.86007900089332, "lon": -109.7275354811506, "alt_km": 424.437311698166, "timestamp": "2025-12-03T04:52:28.419524+00:00", "meta": {"OBJECT_NAME": "STARLINK-35669", "OBJECT_ID": "2025-257S", "EPOCH": "2025-12-02T20:00:03.000384", "MEAN_MOTION": 15.49306659, "ECCENTRICITY": 0.0001336, "INCLINATION": 53.1584, "RA_OF_ASC_NODE": 311.163, "ARG_OF_PERICENTER": 105.3146, "MEAN_ANOMALY": 281.08, "EPHEMERIS_TYPE": 0, "CLASSIFICATION_TYPE": "U", "NORAD_CAT_ID": 66396, "ELEMENT_SET_NO": 999, "REV_AT_EPOCH": 490, "BSTAR": -0.00056937, "MEAN_MOTION_DOT": -0.00031982, "MEAN_MOTION_DDOT": 0}, "tle": {"line1": "1 66396U 25257S   25336.83336806 -.00031982  00000+0 -56937-3 0  9994", "line2": "2 66396  53.1584 311.1630 0001336 105.3146 281.0800 15.49306659  4906"}}, "geometry": {"type": "Point", "coordinates": [-109.7275354811506, -48.86007900089332]}}, {"type": "Feature", "properties": {"norad_id": 66397, "name": "STARLINK-35510", "group": "last-30-days", "lat": -48.0456484180145, "lon": -107.1241899186475, "alt_km": 424.3105768776104, "timestamp": "2025-12-03T04:52:28.419534+00:00", "meta": {"OBJECT_NAME": "STARLINK-35510", "OBJECT_ID": "2025-257T", "EPOCH": "2025-12-02T20:00:03.000384", "MEAN_MOTION": 15.49295182, "ECCENTRICITY": 0.0001242, "INCLINATION": 53.1584, "RA_OF_ASC_NODE": 311.1595, "ARG_OF_PERICENTER": 98.5403, "MEAN_ANOMALY": 289.7741, "EPHEMERIS_TYPE": 0, "CLASSIFICATION_TYPE": "U", "NORAD_CAT_ID": 66397, "ELEMENT_SET_NO": 999, "REV_AT_EPOCH": 490, "BSTAR": -0.00013214, "MEAN_MOTION_DOT": -7.787e-05, "MEAN_MOTION_DDOT": 0}, "tle": {"line1": "1 66397U 25257T   25336.83336806 -.00007787  00000+0 -13214-3 0  9992", "line2": "2 66397  53.1584 311.1595 0001242  98.5403 289.7741 15.49295182  4909"}}, "geometry": {"type": "Point", "coordinates": [-107.1241899186475, -48.0456484180145]}}, {"type": "Feature", "properties": {"norad_id": 66398, "name": "STARLINK-35642", "group": "last-30-days", "lat": -47.17552768581611, "lon": -104.60934465193003, "alt_km": 424.2827396280627, "timestamp": "2025-12-03T04:52:28.419546+00:00", "meta": {"OBJECT_NAME": "STARLINK-35642", "OBJECT_ID": "2025-257U", "EPOCH": "2025-12-02T20:00:03.000384", "MEAN_MOTION": 15.49291915, "ECCENTRICITY": 0.000123, "INCLINATION": 53.1584, "RA_OF_ASC_NODE": 311.1553, "ARG_OF_PERICENTER": 101.1368, "MEAN_ANOMALY": 289.0923, "EPHEMERIS_TYPE": 0, "CLASSIFICATION_TYPE": "U", "NORAD_CAT_ID": 66398, "ELEMENT_SET_NO": 999, "REV_AT_EPOCH": 490, "BSTAR": -0.00010222, "MEAN_MOTION_DOT": -6.125e-05, "MEAN_MOTION_DDOT": 0}, "tle": {"line1": "1 66398U 25257U   25336.83336806 -.00006125  00000+0 -10222-3 0  9994", "line2": "2 66398  53.1584 311.1553 0001230 101.1368 289.0923 15.49291915  4907"}}, "geometry": {"type": "Point", "coordinates": [-104.60934465193003, -47.17552768581611]}}, {"type": "Feature", "properties": {"norad_id": 66399, "name": "STARLINK-35657", "group": "last-30-days", "lat": -46.24626281798975, "lon": -102.1632860166664, "alt_km": 424.29109172753124, "timestamp": "2025-12-03T04:52:28.419558+00:00", "meta": {"OBJECT_NAME": "STARLINK-35657", "OBJECT_ID": "2025-257V", "EPOCH": "2025-12-02T20:00:03.000384", "MEAN_MOTION": 15.49299777, "ECCENTRICITY": 0.0001277, "INCLINATION": 53.1584, "RA_OF_ASC_NODE": 311.1515, "ARG_OF_PERICENTER": 103.3587, "MEAN_ANOMALY": 288.7894, "EPHEMERIS_TYPE": 0, "CLASSIFICATION_TYPE": "U", "NORAD_CAT_ID": 66399, "ELEMENT_SET_NO": 999, "REV_AT_EPOCH": 490, "BSTAR": -0.00034278, "MEAN_MOTION_DOT": -0.00019459, "MEAN_MOTION_DDOT": 0}, "tle": {"line1": "1 66399U 25257V   25336.83336806 -.00019459  00000+0 -34278-3 0  9996", "line2": "2 66399  53.1584 311.1515 0001277 103.3587 288.7894 15.49299777  4901"}}, "geometry": {"type": "Point", "coordinates": [-102.1632860166664, -46.24626281798975]}}, {"type": "Feature", "properties": {"norad_id": 66400, "name": "STARLINK-35667", "group": "last-30-days", "lat": -43.94766898963952, "lon": -96.90579705876819, "alt_km": 423.70441913205195, "timestamp": "2025-12-03T04:52:28.419581+00:00", "meta": {"OBJECT_NAME": "STARLINK-35667", "OBJECT_ID": "2025-257W", "EPOCH": "2025-12-02T20:00:03.000384", "MEAN_MOTION": 15.4947041, "ECCENTRICITY": 0.0001927, "INCLINATION": 53.1584, "RA_OF_ASC_NODE": 311.1425, "ARG_OF_PERICENTER": 103.5249, "MEAN_ANOMALY": 292.6844, "EPHEMERIS_TYPE": 0, "CLASSIFICATION_TYPE": "U", "NORAD_CAT_ID": 66400, "ELEMENT_SET_NO": 999, "REV_AT_EPOCH": 490, "BSTAR": 0.0029742, "MEAN_MOTION_DOT": 0.00169565, "MEAN_MOTION_DDOT": 0}, "tle": {"line1": "1 66400U 25257W   25336.83336806  .00169565  00000+0  29742-2 0  9990", "line2": "2 66400  53.1584 311.1425 0001927 103.5249 292.6844 15.49470410  4907"}}, "geometry": {"type": "Point", "coordinates": [-96.90579705876819, -43.94766898963952]}}, {"type": "Feature", "properties": {"norad_id": 66401, "name": "STARLINK-35668", "group": "last-30-days", "lat": -43.180503516557046, "lon": -95.34516763156249, "alt_km": 424.0450645825258, "timestamp": "2025-12-03T04:52:28.419593+00:00", "meta": {"OBJECT_NAME": "STARLINK-35668", "OBJECT_ID": "2025-257X", "EPOCH": "2025-12-02T20:00:03.000384", "MEAN_MOTION": 15.49280465, "ECCENTRICITY": 0.0001133, "INCLINATION": 53.1585, "RA_OF_ASC_NODE": 311.1392, "ARG_OF_PERICENTER": 98.0614, "MEAN_ANOMALY": 299.8502, "EPHEMERIS_TYPE": 0, "CLASSIFICATION_TYPE": "U", "NORAD_CAT_ID": 66401, "ELEMENT_SET_NO": 999, "REV_AT_EPOCH": 490, "BSTAR": 8.0882e-05, "MEAN_MOTION_DOT": 4.048e-05, "MEAN_MOTION_DDOT": 0}, "tle": {"line1": "1 66401U 25257X   25336.83336806  .00004048  00000+0  80882-4 0  9999", "line2": "2 66401  53.1585 311.1392 0001133  98.0614 299.8502 15.49280465  4904"}}, "geometry": {"type": "Point", "coordinates": [-95.34516763156249, -43.180503516557046]}}, {"type": "Feature", "properties": {"norad_id": 66402, "name": "STARLINK-35644", "group": "last-30-days", "lat": -45.27263727036504, "lon": -99.81593828295816, "alt_km": 424.2346158777791, "timestamp": "2025-12-03T04:52:28.419603+00:00", "meta": {"OBJECT_NAME": "STARLINK-35644", "OBJECT_ID": "2025-257Y", "EPOCH": "2025-12-02T20:00:03.000384", "MEAN_MOTION": 15.49294723, "ECCENTRICITY": 0.0001254, "INCLINATION": 53.1584, "RA_OF_ASC_NODE": 311.1471, "ARG_OF_PERICENTER": 102.4818, "MEAN_ANOMALY": 291.5817, "EPHEMERIS_TYPE": 0, "CLASSIFICATION_TYPE": "U", "NORAD_CAT_ID": 66402, "ELEMENT_SET_NO": 999, "REV_AT_EPOCH": 490, "BSTAR": -0.00023667, "MEAN_MOTION_DOT": -0.00013582, "MEAN_MOTION_DDOT": 0}, "tle": {"line1": "1 66402U 25257Y   25336.83336806 -.00013582  00000+0 -23667-3 0  9992", "line2": "2 66402  53.1584 311.1471 0001254 102.4818 291.5817 15.49294723  4902"}}, "geometry": {"type": "Point", "coordinates": [-99.81593828295816, -45.27263727036504]}}, {"type": "Feature", "properties": {"norad_id": 66403, "name": "STARLINK-35602", "group": "last-30-days", "lat": -42.07658617417326, "lon": -93.2355674124312, "alt_km": 424.17910735969326, "timestamp": "2025-12-03T04:52:28.419613+00:00", "meta": {"OBJECT_NAME": "STARLINK-35602", "OBJECT_ID": "2025-257Z", "EPOCH": "2025-12-02T20:00:03.000384", "MEAN_MOTION": 15.49289257, "ECCENTRICITY": 0.0001431, "INCLINATION": 53.1584, "RA_OF_ASC_NODE": 311.1353, "ARG_OF_PERICENTER": 99.3583, "MEAN_ANOMALY": 300.4573, "EPHEMERIS_TYPE": 0, "CLASSIFICATION_TYPE": "U", "NORAD_CAT_ID": 66403, "ELEMENT_SET_NO": 999, "REV_AT_EPOCH": 490, "BSTAR": -7.9394e-05, "MEAN_MOTION_DOT": -4.858e-05, "MEAN_MOTION_DDOT": 0}, "tle": {"line1": "1 66403U 25257Z   25336.83336806 -.00004858  00000+0 -79394-4 0  9998", "line2": "2 66403  53.1584 311.1353 0001431  99.3583 300.4573 15.49289257  4907"}}, "geometry": {"type": "Point", "coordinates": [-93.2355674124312, -42.07658617417326]}}, {"type": "Feature", "properties": {"norad_id": 66404, "name": "STARLINK-35691", "group": "last-30-days", "lat": -40.930144143783096, "lon": -91.19094043747171, "alt_km": 424.0327228381502, "timestamp": "2025-12-03T04:52:28.419623+00:00", "meta": {"OBJECT_NAME": "STARLINK-35691", "OBJECT_ID": "2025-257AA", "EPOCH": "2025-12-02T20:00:03.000384", "MEAN_MOTION": 15.49293098, "ECCENTRICITY": 0.0001279, "INCLINATION": 53.1584, "RA_OF_ASC_NODE": 311.1309, "ARG_OF_PERICENTER": 100.6964, "MEAN_ANOMALY": 301.0344, "EPHEMERIS_TYPE": 0, "CLASSIFICATION_TYPE": "U", "NORAD_CAT_ID": 66404, "ELEMENT_SET_NO": 999, "REV_AT_EPOCH": 490, "BSTAR": -0.00017204, "MEAN_MOTION_DOT": -9.999e-05, "MEAN_MOTION_DDOT": 0}, "tle": {"line1": "1 66404U 25257AA  25336.83336806 -.00009999  00000+0 -17204-3 0  9991", "line2": "2 66404  53.1584 311.1309 0001279 100.6964 301.0344 15.49293098  4909"}}, "geometry": {"type": "Point", "coordinates": [-91.19094043747171, -40.930144143783096]}}]}